INTELSAT 902 (IS-902)   
1 26900U 01039A   26195.54914038 -.00000295  00000+0  00000+0 0  9992
2 26900   6.1834  71.4466 0004217  40.6431 327.9041  1.00272956 90974
INTELSAT 904 (IS-904)   
1 27380U 02007A   26195.45850451 -.00000238  00000+0  00000+0 0  9996
2 27380   6.9859  68.8533 0005357  25.0293 332.0278  1.00270775 52037
DIRECTV 5 (TEMPO 1)     
1 27426U 02023A   26195.55403007 -.00000068  00000+0  00000+0 0  9998
2 27426   4.9455  74.9673 0003057  45.4732 261.3095  1.00271214 88398
INTELSAT 905 (IS-905)   
1 27438U 02027A   26195.54320030  .00000081  00000+0  00000+0 0  9992
2 27438   6.8199  69.4663 0003464  47.3616 233.9172  1.00271728 51637
GALAXY 3C (G-3C)        
1 27445U 02030A   26195.56468971 -.00000163  00000+0  00000+0 0  9995
2 27445   3.8023  77.6189 0001510  35.5728 287.6872  1.00270677 46768
INTELSAT 906 (IS-906)   
1 27513U 02041A   26195.21531611  .00000001  00000+0  00000+0 0  9997
2 27513   5.8686  72.5873 0003844  23.7209 337.4316  1.00272945 87302
GALAXY 13 (HORIZONS-1)  
1 27954U 03044A   26195.53789596  .00000124  00000+0  00000+0 0  9998
2 27954   1.4876  83.5148 0002155  28.5910 223.9175  1.00270996 46847
INTELSAT 10-02          
1 28358U 04022A   26195.55876043 -.00000019  00000+0  00000+0 0  9994
2 28358   0.0546 250.7792 0000431 353.4325 248.3532  1.00271097 80831
DIRECTV 8               
1 28659U 05019A   26195.53544698  .00000000  00000+0  00000+0 0  9990
2 28659   0.0192  47.2310 0003089  79.3546 239.5319  1.00270640 77348
GALAXY 28 (G-28)        
1 28702U 05022A   26195.45878229 -.00000210  00000+0  00000+0 0  9998
2 28702   3.3664  78.5961 0002573  25.2370 326.5489  1.00272095 52241
GALAXY 16 (G-16)        
1 29236U 06023A   26195.53943366 -.00000134  00000+0  00000+0 0  9992
2 29236   0.0125  94.4952 0002534  31.9261 261.1708  1.00271061 73240
DIRECTV 9S              
1 29494U 06043A   26195.53900032 -.00000123  00000+0  00000+0 0  9991
2 29494   2.4892  80.5713 0005000  33.9845 270.6786  1.00270977 51652
GALAXY 17 (G-17)        
1 31307U 07016B   26195.54220701 -.00000216  00000+0  00000+0 0  9990
2 31307   3.0385  79.5538 0003533  33.5707 289.4469  1.00271926 70075
INTELSAT 11 (IS-11)     
1 32253U 07044B   26195.56006043 -.00000153  00000+0  00000+0 0  9995
2 32253   3.6345  78.3362 0004166 100.7627 320.3280  0.99052024 68729
HORIZONS-2              
1 32388U 07063B   26195.54446036 -.00000263  00000+0  00000+0 0  9995
2 32388   2.6705  80.2897 0003530  19.8834 314.4241  1.00269380 68084
DIRECTV 11              
1 32729U 08013A   26195.53943366 -.00000133  00000+0  00000+0 0  9993
2 32729   0.0105 271.2272 0000084 291.1536 185.0288  1.00272107 45868
GALAXY 18 (G-18)        
1 32951U 08024A   26195.53466697  .00000018  00000+0  00000+0 0  9990
2 32951   0.0169  47.3498 0002837  79.4556 235.0622  1.00271247 46126
GALAXY 19 (G-19)        
1 33376U 08045A   26195.53986700 -.00000147  00000+0  00000+0 0  9991
2 33376   0.0593 248.7722 0002320 237.0169 263.9682  1.00272756 65173
FM-5                    
1 35493U 09034A   26194.90035760 -.00000205  00000+0  00000+0 0  9998
2 35493   0.0457 259.5714 0000757  86.9227 183.2440  1.00271245 46912
INTELSAT 14 (IS-14)     
1 36097U 09064A   26195.47854590 -.00000281  00000+0  00000+0 0  9999
2 36097   0.0219 302.2528 0002170 180.4414 296.9194  1.00268802 60871
INTELSAT 15 (IS-15)     
1 36106U 09067A   26195.57592275 -.00000192  00000+0  00000+0 0  9994
2 36106   0.0150 324.6728 0002199 154.7318 105.5006  1.00268740 41501
DIRECTV 12              
1 36131U 09075A   26195.56753963 -.00000111  00000+0  00000+0 0  9994
2 36131   0.0072 156.8097 0000327  69.3280 167.8714  1.00272001 46828
INTELSAT 16 (IS-16)     
1 36397U 10006A   26195.54394035 -.00000252  00000+0  00000+0 0  9999
2 36397   0.0121  29.6555 0002307 108.0889 274.2677  1.00270145 59922
XM-5                    
1 37185U 10053A   26194.27598828 -.00000026  00000+0  00000+0 0  9991
2 37185   0.0648 265.0318 0001728 322.3275  47.9546  1.00270903 57741
INTELSAT 17 (IS-17)     
1 37238U 10065B   26195.57753130 -.00000009  00000+0  00000+0 0  9997
2 37238   0.0066 131.1725 0002648   2.9232  72.2427  1.00270588 53525
INTELSAT 28 (IS-28)     
1 37392U 11016A   26195.19633601 -.00000233  00000+0  00000+0 0  9992
2 37392   1.8738  82.2861 0003704  40.6955 208.0408  1.00271187 53550
INTELSAT 18 (IS-18)     
1 37834U 11056A   26195.50808684  .00000045  00000+0  00000+0 0  9997
2 37834   0.0156 352.7163 0001693 131.8483 170.7053  1.00270578 54083
INTELSAT 22 (IS-22)     
1 38098U 12011A   26195.61294917 -.00000067  00000+0  00000+0 0  9997
2 38098   0.0119  34.1187 0001852  88.5745 102.5349  1.00272354  7463
INTELSAT 19 (IS-19)     
1 38356U 12030A   26195.60414825  .00000000  00000+0  00000+0 0  9992
2 38356   0.0269  48.9738 0003218  79.2801 187.7139  1.00269943 50728
INTELSAT 20 (IS-20)     
1 38740U 12043A   26195.57262941 -.00000032  00000+0  00000+0 0  9995
2 38740   0.0117  62.5582 0001223 114.7674  29.7527  1.00271131 51025
INTELSAT 21 (IS-21)     
1 38749U 12045A   26195.19052400 -.00000291  00000+0  00000+0 0  9998
2 38749   0.0563 254.8538 0001278 255.5602 152.2105  1.00263192 50796
INTELSAT 23 (IS-23)     
1 38867U 12057A   26195.44754080 -.00000292  00000+0  00000+0 0  9994
2 38867   0.0143  28.5544 0000352 163.7563 208.1245  1.00273615 50227
FM-6                    
1 39360U 13058A   26194.96565503 -.00000021  00000+0  00000+0 0  9991
2 39360   0.0142  33.4803 0001390 144.8411 344.7900  1.00270909 46349
INTELSAT 30 (IS-30)     
1 40271U 14062A   26194.82722561 -.00000156  00000+0  00000+0 0  9993
2 40271   0.0159  46.9890 0001468 332.6212 114.8422  1.00270855  7068
DIRECTV 14              
1 40333U 14078B   26195.53943366 -.00000133  00000+0  00000+0 0  9991
2 40333   0.0122  43.3357 0000614 293.1812  50.8330  1.00268294 42313
DIRECTV 15              
1 40663U 15026A   26195.48655975 -.00000110  00000+0  00000+0 0  9996
2 40663   0.0174  71.8475 0000069 257.5366  35.2500  1.00271654 40739
SKY MEXICO-1            
1 40664U 15026B   26195.54342035 -.00000242  00000+0  00000+0 0  9990
2 40664   0.0172  32.6899 0002349 103.2479 273.2909  1.00270202 40722
INTELSAT 34 (IS-34)     
1 40874U 15039A   26195.26286936 -.00000292  00000+0  00000+0 0  9998
2 40874   0.0110 352.6276 0000554   9.3806 329.2648  1.00271009 39903
INTELSAT 31 (IS-31)     
1 41581U 16035A   26194.89862426 -.00000156  00000+0  00000+0 0  9992
2 41581   0.0229 276.7908 0001186  13.0074 230.4271  1.00270917 36953
INTELSAT 36 (IS-36)     
1 41747U 16053A   26195.57262941 -.00000032  00000+0  00000+0 0  9991
2 41747   0.0107  27.5590 0002426 311.9912 227.5056  1.00270234 36231
INTELSAT 32E (IS-32E)   
1 41945U 17007B   26194.76633344  .00000000  00000+0  00000+0 0  9994
2 41945   0.0235  44.2470 0000484 284.5035 195.6038  1.00269936 34497
INTELSAT 35E (IS-35E)   
1 42818U 17041A   26195.48088591  .00000000  00000+0  00000+0 0  9990
2 42818   0.0254  54.7914 0001616  56.4682 319.7052  1.00267101 33080
INTELSAT 37E (IS-37E)   
1 42950U 17059A   26195.41287247 -.00000148  00000+0  00000+0 0  9992
2 42950   0.0180  39.3642 0002555  84.0049 299.5250  1.00269751 32334
AZERSPACE 2 (IS-38)     
1 43632U 18074A   26195.56794713  .00000000  00000+0  00000+0 0  9991
2 43632   0.0270  52.9342 0001271  70.5984  58.4749  1.00270081 28723
HORIZONS-3E             
1 43633U 18074B   26194.64002854 -.00000035  00000+0  00000+0 0  9997
2 43633   0.0498 224.9289 0000940  53.6947  52.2963  1.00270118 28608
AT&T T-16               
1 44333U 19034A   26195.53908699 -.00000122  00000+0  00000+0 0  9990
2 44333   0.0148  68.9171 0000616 249.2160  67.4649  1.00268403 25907
INTELSAT 39 (IS-39)     
1 44476U 19049B   26194.92525137  .00000000  00000+0  00000+0 0  9992
2 44476   0.0241  49.4551 0000732 282.1376 355.2527  1.00272225 25392
GALAXY 30 (G-30)        
1 46114U 20056C   26195.53432030  .00000029  00000+0  00000+0 0  9991
2 46114   0.0160  45.8535 0001967  69.3103 244.5766  1.00271569 21569
GALAXY 33 (G-33)        
1 54026U 22128A   26195.53267362  .00000071  00000+0  00000+0 0  9995
2 54026   0.0132  30.7698 0001772  89.6874 230.6964  1.00271968 14017
GALAXY 34 (G-34)        
1 54027U 22128B   26195.53354030  .00000000  00000+0  00000+0 0  9997
2 54027   0.0267  39.5061 0001509  86.9762 228.9983  1.00275566 14189
GALAXY 31 (G-31)        
1 54243U 22153A   26195.53510030  .00000006  00000+0  00000+0 0  9995
2 54243   0.0159  69.1234 0000963  50.6170 244.2713  1.00270964  7400
GALAXY 32 (G-32)        
1 54244U 22153B   26195.54099367 -.00000182  00000+0  00000+0 0  9998
2 54244   0.0107  43.5038 0001418   4.4759 348.1671  1.00269851 13416
GALAXY 35 (G-35)        
1 54741U 22170A   26195.54056034 -.00000170  00000+0  00000+0 0  9990
2 54741   0.0202  80.2306 0001930  36.6850 276.9639  1.00270062 13168
GALAXY 36 (G-36)        
1 54742U 22170B   26195.54142700 -.00000193  00000+0  00000+0 0  9992
2 54742   0.0041 124.2203 0002388 335.9041 298.1858  1.00270300 13041
GALAXY 37 (G-37)        
1 57493U 23112A   26194.96357502  .00000042  00000+0  00000+0 0  9990
2 57493   0.0218  73.5270 0001739  44.1230  34.0616  1.00271325 10810
